start=new Date('2023-02-16T00:00:00.000Z').valueOf();
sats=[{"MEAN_MOTION":"15.08864422","REF_FRAME":"TEME","RA_OF_ASC_NODE":"1.5333","SEMIMAJOR_AXIS":"6917.806","ARG_OF_PERICENTER":"97.0488","TLE_LINE1":"1 52855U 22062AB  23047.01972922  .00007125  00000-0  46497-3 0  9993","SITE":"AFETR","CENTER_NAME":"EARTH","MEAN_MOTION_DOT":"0.00007125","GP_ID":"225522376","ECCENTRICITY":"0.00007770","BSTAR":"0.00046497000000","NORAD_CAT_ID":"52855","EPHEMERIS_TYPE":"0","MEAN_ANOMALY":"263.0593","TIME_SYSTEM":"UTC","REV_AT_EPOCH":"3768","OBJECT_TYPE":"PAYLOAD","FILE":"3794786","ELEMENT_SET_NO":"999","LAUNCH_DATE":"2022-06-17","OBJECT_ID":"2022-062AB","MEAN_MOTION_DDOT":"0.0000000000000","RCS_SIZE":"LARGE","APOAPSIS":"540.208","PERIAPSIS":"539.133","INCLINATION":"53.2192","MEAN_ELEMENT_THEORY":"SGP4","COUNTRY_CODE":"US","DECAY_DATE":null,"OBJECT_NAME":"STARLINK-4209","CLASSIFICATION_TYPE":"U","TLE_LINE2":"2 52855  53.2192   1.5333 0000777  97.0488 263.0593 15.08864422 37683","PERIOD":"95.436","EPOCH":"2023-02-16T00:28:24.604608"},{"TLE_LINE1":"1 52856U 22062AC  23046.89093923  .00017110  00000-0  10899-2 0  9995","SEMIMAJOR_AXIS":"6917.817","ARG_OF_PERICENTER":"101.7675","CENTER_NAME":"EARTH","SITE":"AFETR","MEAN_MOTION":"15.08860585","RA_OF_ASC_NODE":"2.1121","REF_FRAME":"TEME","NORAD_CAT_ID":"52856","EPHEMERIS_TYPE":"0","MEAN_ANOMALY":"258.3476","TIME_SYSTEM":"UTC","BSTAR":"0.00108990000000","OBJECT_TYPE":"PAYLOAD","FILE":"3795153","REV_AT_EPOCH":"3717","GP_ID":"225553423","ECCENTRICITY":"0.00014100","MEAN_MOTION_DOT":"0.00017110","RCS_SIZE":"LARGE","APOAPSIS":"540.658","INCLINATION":"53.2184","PERIAPSIS":"538.707","LAUNCH_DATE":"2022-06-17","ELEMENT_SET_NO":"999","MEAN_MOTION_DDOT":"0.0000000000000","OBJECT_ID":"2022-062AC","OBJECT_NAME":"STARLINK-4201","CLASSIFICATION_TYPE":"U","TLE_LINE2":"2 52856  53.2184   2.1121 0001410 101.7675 258.3476 15.08860585 37170","PERIOD":"95.436","EPOCH":"2023-02-15T21:22:57.149472","MEAN_ELEMENT_THEORY":"SGP4","DECAY_DATE":null,"COUNTRY_CODE":"US"},{"LAUNCH_DATE":"2022-06-17","ELEMENT_SET_NO":"999","MEAN_MOTION_DDOT":"0.0000000000000","OBJECT_ID":"2022-062AD","APOAPSIS":"540.602","RCS_SIZE":"LARGE","INCLINATION":"53.2183","PERIAPSIS":"538.692","MEAN_ELEMENT_THEORY":"SGP4","DECAY_DATE":null,"COUNTRY_CODE":"US","OBJECT_NAME":"STARLINK-4199","TLE_LINE2":"2 52857  53.2183   1.5653 0001381 101.5446 258.5701 15.08872211 37682","CLASSIFICATION_TYPE":"U","PERIOD":"95.436","EPOCH":"2023-02-16T00:17:49.245792","MEAN_MOTION":"15.08872211","RA_OF_ASC_NODE":"1.5653","REF_FRAME":"TEME","TLE_LINE1":"1 52857U 22062AD  23047.01237553  .00019407  00000-0  12330-2 0  9993","SEMIMAJOR_AXIS":"6917.782","ARG_OF_PERICENTER":"101.5446","CENTER_NAME":"EARTH","SITE":"AFETR","GP_ID":"225522190","ECCENTRICITY":"0.00013810","MEAN_MOTION_DOT":"0.00019407","NORAD_CAT_ID":"52857","EPHEMERIS_TYPE":"0","MEAN_ANOMALY":"258.5701","TIME_SYSTEM":"UTC","BSTAR":"0.00123300000000","OBJECT_TYPE":"PAYLOAD","FILE":"3794786","REV_AT_EPOCH":"3768"},{"RCS_SIZE":"LARGE","APOAPSIS":"540.558","PERIAPSIS":"538.781","INCLINATION":"53.2189","ELEMENT_SET_NO":"999","LAUNCH_DATE":"2022-06-17","OBJECT_ID":"2022-062AE","MEAN_MOTION_DDOT":"0.0000000000000","OBJECT_NAME":"STARLINK-4198","CLASSIFICATION_TYPE":"U","TLE_LINE2":"2 52858  53.2189   1.5323 0001284  82.3986 277.7152 15.08864777 37681","PERIOD":"95.436","EPOCH":"2023-02-16T00:29:47.838048","MEAN_ELEMENT_THEORY":"SGP4","COUNTRY_CODE":"US","DECAY_DATE":null,"SEMIMAJOR_AXIS":"6917.805","ARG_OF_PERICENTER":"82.3986","TLE_LINE1":"1 52858U 22062AE  23047.02069257  .00010680  00000-0  68764-3 0  9996","SITE":"AFETR","CENTER_NAME":"EARTH","MEAN_MOTION":"15.08864777","REF_FRAME":"TEME","RA_OF_ASC_NODE":"1.5323","BSTAR":"0.00068764000000","MEAN_ANOMALY":"277.7152","NORAD_CAT_ID":"52858","EPHEMERIS_TYPE":"0","TIME_SYSTEM":"UTC","REV_AT_EPOCH":"3768","OBJECT_TYPE":"PAYLOAD","FILE":"3794833","MEAN_MOTION_DOT":"0.00010680","GP_ID":"225523422","ECCENTRICITY":"0.00012840"},{"FILE":"3794831","OBJECT_TYPE":"PAYLOAD","REV_AT_EPOCH":"3768","NORAD_CAT_ID":"52859","EPHEMERIS_TYPE":"0","MEAN_ANOMALY":"259.2861","TIME_SYSTEM":"UTC","BSTAR":"0.00162570000000","ECCENTRICITY":"0.00013120","GP_ID":"225523401","MEAN_MOTION_DOT":"0.00025703","CENTER_NAME":"EARTH","SITE":"AFETR","TLE_LINE1":"1 52859U 22062AF  23047.00869555  .00025703  00000-0  16257-2 0  9995","ARG_OF_PERICENTER":"100.8279","SEMIMAJOR_AXIS":"6917.780","RA_OF_ASC_NODE":"1.5836","REF_FRAME":"TEME","MEAN_MOTION":"15.08872972","EPOCH":"2023-02-16T00:12:31.295520","PERIOD":"95.435","TLE_LINE2":"2 52859  53.2157   1.5836 0001312 100.8279 259.2861 15.08872972 37687","CLASSIFICATION_TYPE":"U","OBJECT_NAME":"STARLINK-4196","DECAY_DATE":null,"COUNTRY_CODE":"US","MEAN_ELEMENT_THEORY":"SGP4","INCLINATION":"53.2157","PERIAPSIS":"538.737","APOAPSIS":"540.552","RCS_SIZE":"LARGE","MEAN_MOTION_DDOT":"0.0000000000000","OBJECT_ID":"2022-062AF","LAUNCH_DATE":"2022-06-17","ELEMENT_SET_NO":"999"},{"ECCENTRICITY":"0.00012790","GP_ID":"225523402","MEAN_MOTION_DOT":"0.00045185","FILE":"3794831","OBJECT_TYPE":"PAYLOAD","REV_AT_EPOCH":"3768","MEAN_ANOMALY":"240.8236","NORAD_CAT_ID":"52860","EPHEMERIS_TYPE":"0","TIME_SYSTEM":"UTC","BSTAR":"0.00283420000000","RA_OF_ASC_NODE":"1.5588","REF_FRAME":"TEME","MEAN_MOTION":"15.08902365","CENTER_NAME":"EARTH","SITE":"AFETR","TLE_LINE1":"1 52860U 22062AG  23047.01604816  .00045185  00000-0  28342-2 0  9999","ARG_OF_PERICENTER":"119.2884","SEMIMAJOR_AXIS":"6917.690","DECAY_DATE":null,"COUNTRY_CODE":"US","MEAN_ELEMENT_THEORY":"SGP4","EPOCH":"2023-02-16T00:23:06.561024","PERIOD":"95.434","TLE_LINE2":"2 52860  53.2176   1.5588 0001279 119.2884 240.8236 15.08902365 37684","CLASSIFICATION_TYPE":"U","OBJECT_NAME":"STARLINK-4191","MEAN_MOTION_DDOT":"0.0000000000000","OBJECT_ID":"2022-062AG","LAUNCH_DATE":"2022-06-17","ELEMENT_SET_NO":"999","INCLINATION":"53.2176","PERIAPSIS":"538.670","APOAPSIS":"540.440","RCS_SIZE":"LARGE"},{"REV_AT_EPOCH":"3717","FILE":"3795153","OBJECT_TYPE":"PAYLOAD","BSTAR":"0.00115670000000","NORAD_CAT_ID":"52861","EPHEMERIS_TYPE":"0","MEAN_ANOMALY":"283.1054","TIME_SYSTEM":"UTC","MEAN_MOTION_DOT":"0.00018204","ECCENTRICITY":"0.00013050","GP_ID":"225552681","SITE":"AFETR","CENTER_NAME":"EARTH","ARG_OF_PERICENTER":"77.0084","SEMIMAJOR_AXIS":"6917.666","TLE_LINE1":"1 52861U 22062AH  23046.85784149  .00018204  00000-0  11567-2 0  9992","REF_FRAME":"TEME","RA_OF_ASC_NODE":"2.2700","MEAN_MOTION":"15.08910184","EPOCH":"2023-02-15T20:35:17.504736","PERIOD":"95.433","CLASSIFICATION_TYPE":"U","TLE_LINE2":"2 52861  53.2166   2.2700 0001305  77.0084 283.1054 15.08910184 37171","OBJECT_NAME":"STARLINK-4112","COUNTRY_CODE":"US","DECAY_DATE":null,"MEAN_ELEMENT_THEORY":"SGP4","PERIAPSIS":"538.628","INCLINATION":"53.2166","RCS_SIZE":"LARGE","APOAPSIS":"540.434","OBJECT_ID":"2022-062AH","MEAN_MOTION_DDOT":"0.0000000000000","ELEMENT_SET_NO":"999","LAUNCH_DATE":"2022-06-17"},{"MEAN_MOTION_DOT":"0.00026220","GP_ID":"225552928","ECCENTRICITY":"0.00012910","BSTAR":"0.00165800000000","EPHEMERIS_TYPE":"0","NORAD_CAT_ID":"52862","MEAN_ANOMALY":"259.6733","TIME_SYSTEM":"UTC","REV_AT_EPOCH":"3717","OBJECT_TYPE":"PAYLOAD","FILE":"3795153","MEAN_MOTION":"15.08870336","REF_FRAME":"TEME","RA_OF_ASC_NODE":"2.1915","SEMIMAJOR_AXIS":"6917.788","ARG_OF_PERICENTER":"100.4404","TLE_LINE1":"1 52862U 22062AJ  23046.87254424  .00026220  00000-0  16580-2 0  9990","SITE":"AFETR","CENTER_NAME":"EARTH","MEAN_ELEMENT_THEORY":"SGP4","COUNTRY_CODE":"US","DECAY_DATE":null,"OBJECT_NAME":"STARLINK-4010","TLE_LINE2":"2 52862  53.2161   2.1915 0001291 100.4404 259.6733 15.08870336 37171","CLASSIFICATION_TYPE":"U","PERIOD":"95.436","EPOCH":"2023-02-15T20:56:27.822336","ELEMENT_SET_NO":"999","LAUNCH_DATE":"2022-06-17","OBJECT_ID":"2022-062AJ","MEAN_MOTION_DDOT":"0.0000000000000","APOAPSIS":"540.546","RCS_SIZE":"LARGE","PERIAPSIS":"538.760","INCLINATION":"53.2161"},{"PERIOD":"95.437","EPOCH":"2023-02-15T20:45:51.895872","OBJECT_NAME":"STARLINK-4270","TLE_LINE2":"2 52863  53.2230   2.2299 0002146  81.7249 278.3987 15.08841557 37175","CLASSIFICATION_TYPE":"U","COUNTRY_CODE":"US","DECAY_DATE":null,"MEAN_ELEMENT_THEORY":"SGP4","PERIAPSIS":"538.256","INCLINATION":"53.2230","RCS_SIZE":"LARGE","APOAPSIS":"541.225","OBJECT_ID":"2022-062AK","MEAN_MOTION_DDOT":"0.0000000000000","ELEMENT_SET_NO":"999","LAUNCH_DATE":"2022-06-17","REV_AT_EPOCH":"3717","OBJECT_TYPE":"PAYLOAD","FILE":"3795153","BSTAR":"0.00008230400000","MEAN_ANOMALY":"278.3987","NORAD_CAT_ID":"52863","EPHEMERIS_TYPE":"0","TIME_SYSTEM":"UTC","MEAN_MOTION_DOT":"0.00001022","ECCENTRICITY":"0.00021460","GP_ID":"225553182","SITE":"AFETR","CENTER_NAME":"EARTH","SEMIMAJOR_AXIS":"6917.876","ARG_OF_PERICENTER":"81.7249","TLE_LINE1":"1 52863U 22062AK  23046.86518398  .00001022  00000-0  82304-4 0  9995","REF_FRAME":"TEME","RA_OF_ASC_NODE":"2.2299","MEAN_MOTION":"15.08841557"},{"INCLINATION":"53.2175","PERIAPSIS":"538.722","RCS_SIZE":"LARGE","APOAPSIS":"540.595","MEAN_MOTION_DDOT":"0.0000000000000","OBJECT_ID":"2022-062AL","LAUNCH_DATE":"2022-06-17","ELEMENT_SET_NO":"999","EPOCH":"2023-02-15T22:26:32.510400","PERIOD":"95.436","CLASSIFICATION_TYPE":"U","TLE_LINE2":"2 52864  53.2175   1.9114 0001354  86.8625 273.2522 15.08868386 37673","OBJECT_NAME":"STARLINK-4267","DECAY_DATE":null,"COUNTRY_CODE":"US","MEAN_ELEMENT_THEORY":"SGP4","CENTER_NAME":"EARTH","SITE":"AFETR","TLE_LINE1":"1 52864U 22062AL  23046.93509850  .00020997  00000-0  13324-2 0  9993","ARG_OF_PERICENTER":"86.8625","SEMIMAJOR_AXIS":"6917.794","RA_OF_ASC_NODE":"1.9114","REF_FRAME":"TEME","MEAN_MOTION":"15.08868386","FILE":"3794831","OBJECT_TYPE":"PAYLOAD","REV_AT_EPOCH":"3767","NORAD_CAT_ID":"52864","EPHEMERIS_TYPE":"0","MEAN_ANOMALY":"273.2522","TIME_SYSTEM":"UTC","BSTAR":"0.00133240000000","GP_ID":"225523399","ECCENTRICITY":"0.00013540","MEAN_MOTION_DOT":"0.00020997"}];
